#cP2017  5 15  0  0  0.00000000      96 ORBIT IGS14 HLM  IGS
## 1949  86400.00000000   900.00000000 57888 0.0000000000000
+   31   G01G02G03G05G06G07G08G09G10G11G12G13G14G15G16G17G18
+        G19G20G21G22G23G24G25G26G27G28G29G30G31G32  0  0  0
+          0  0  0  0  0  0  0  0  0  0  0  0  0  0  0  0  0
+          0  0  0  0  0  0  0  0  0  0  0  0  0  0  0  0  0
+          0  0  0  0  0  0  0  0  0  0  0  0  0  0  0  0  0
++         1  2  2  2  2  2  2  2  2  2  2  2  2  2  3  2  2
++         2  2  2  2  2  2  2  2  2  2  2  2  2  2  0  0  0
++         0  0  0  0  0  0  0  0  0  0  0  0  0  0  0  0  0
++         0  0  0  0  0  0  0  0  0  0  0  0  0  0  0  0  0
++         0  0  0  0  0  0  0  0  0  0  0  0  0  0  0  0  0
%c G  cc GPS ccc cccc cccc cccc cccc ccccc ccccc ccccc ccccc
%c cc cc ccc ccc cccc cccc cccc cccc ccccc ccccc ccccc ccccc
%f  1.2500000  1.025000000  0.00000000000  0.000000000000000
%f  0.0000000  0.000000000  0.00000000000  0.000000000000000
%i    0    0    0    0      0      0      0      0         0
%i    0    0    0    0      0      0      0      0         0
/* FINAL ORBIT COMBINATION FROM WEIGHTED AVERAGE OF:        
/* cod emr esa gfz grg jpl mit ngs sio                      
/* REFERENCED TO IGS TIME (IGST) AND TO WEIGHTED MEAN POLE: 
/* PCV:IGS14_1930 OL/AL:FES2004  NONE     Y  ORB:CMB CLK:CMB
*  2017  5 15 11 15  0.00000000
PG01 -18262.810310  -6678.197425  18104.251035     54.686471  3  4  3  94       
PG02  14823.792715  22233.134224   -426.140267    419.244119  9  7  2  45       
PG03 -18090.841287   5204.228201  18724.693927   -100.348769  6  3  4  82       
PG05   8014.740185  15461.419860 -20081.896281    -45.934571  5  6  5 103       
PG06   3828.810794  23232.291462  12297.972443    351.156673     3  3  78       
PG07 -12822.110474   7979.826500 -21665.320907    351.234306  8  6  6  94       
PG08 -24010.223906  -6238.915492  -9567.388511    -59.794281  8  7  6 133       
PG09 -22137.338781   8731.221496 -11832.206406    363.698727  8  4  6  87       
PG10   9800.113709 -24150.435996   4820.212750    -53.191081  4  4  3  92       
PG11 -23193.672527  -8105.486180   9453.103435   -688.257471  7  7  4  92       
PG12  15831.996868   1097.513676  21091.832735    383.533168  9  3  6 105       
PG13  18391.360135  12256.786658 -14812.039515    -81.862932  7  6  5 113       
PG14  -2216.738077 -15390.276650  21818.340689    -70.789698  6  4  3 100       
PG15  25884.145517   2768.660815  -6348.431442   -349.938638  9  6  4 101       
PG16  -5481.416599 -15954.889022 -20529.598945     33.285772  9  9  8  93       
PG17  -8115.406295  14005.928361  21383.751985   -179.521185  2  5  3 106       
PG18  14541.790954 -21593.015411  -4100.213815    615.545951 10  8  5  82       
PG19    318.484420  14778.967004  21782.404582   -503.596958  3  6  4 101       
PG20  17078.056955   -470.861737 -20479.221816    472.290890  8  5  5  98       
PG21   8204.844494 -14329.765221 -19998.942010   -506.895861  5  4  2  96       
PG22 -15363.594419  -5287.547886  21264.161618      9.385491  5  5  5  98       
PG23 -26767.479751    921.171999   -779.951777   -211.814094 10  6  5  51       
PG24  19251.837599   8778.421368  16112.766732    -34.850069  8     5  93       
PG25  18211.854035 -13769.055246  13232.568895   -387.572811  3  3    100       
PG26   1635.407964 -22692.901646 -13637.413441   -504.116032  4  3  6  85       
PG27 -14857.201784 -12325.139052 -18390.581566    258.010502  7  5  4  81       
PG28 -13323.802281  22861.013910   2904.062898    612.939137  4  5  3  72       
PG29  24192.253183  -5177.324513  -9625.591067    604.126640 10  2  3  84       
PG30  -3932.321287  19713.434400 -17298.314244    156.800045  4  4  3  96       
PG31  -4559.693781 -23739.958633  10607.247259    200.976309  5  3  6  64       
PG32   6525.881859 -14858.615588  21036.525467   -414.194339  4  6  4  98       
*  2017  5 15 11 30  0.00000000
PG01 -19194.909835  -8430.445218  16358.273610     54.686942  3  4  3  89       
PG02  14569.120121  22341.260228   2378.912579    419.237294  9  7  2  73       
PG03 -17158.877282   3188.232381  20012.095309   -100.347127  5  3  4  80       
PG05   6889.022683  17382.735014 -18869.212334    -45.933165  6  6  5  88       
PG06   2850.041101  22037.971774  14559.757550    351.161185     3  3 102       
PG07 -14121.146571   5831.630627 -21581.177569    351.230518  8  6  6 106       
PG08 -22780.867243  -6499.613456 -12053.526505    -59.795829  8  6  6 125       
PG09 -23357.414887   8551.046366  -9355.158018    363.705831  9  4  7 111       
PG10  10214.317935 -24371.575221   1995.611484    -53.182341  5  4  4  81       
PG11 -23793.740837  -9020.799244   6943.756407   -688.260178  8  7  4  90       
PG12  14590.374545   3248.873157  21768.284396    383.532498  9  2  5 114       
PG13  16594.909754  12275.386283 -16804.418379    -81.863485  7  7  5  96       
PG14    228.127213 -15303.156455  21977.858182    -70.790937  6  4  4  99       
PG15  25070.927113   3150.636924  -8935.566629   -349.939268  9  6  4  73       
PG16  -4200.762720 -17812.221527 -19220.220431     33.286252  8  8  7 110       
PG17 -10430.123559  13915.031943  20386.386333   -179.519543  2  5  2 108       
PG18  14577.081112 -20806.074586  -6799.642860    615.547556 10  8  5  82       
PG19  -2225.586449  14643.385702  21787.270912   -503.595640  2  5  3 113       
PG20  16250.395061   1741.525713 -21079.941066    472.292616  7  5  5 105       
PG21   9687.136736 -12317.169080 -20652.079167   -506.893513  5  5  3  79       
PG22 -14344.509117  -7458.984510  21320.358337      9.374520  5  4  5  83       
PG23 -26735.250043    653.060856   2016.864300   -211.814822 10  5  5  87       
PG24  20058.682217  10331.173684  14115.018870    -34.850521  7     5 105       
PG25  17583.455316 -12213.870397  15423.631064   -387.578690  4  3    105       
PG26   2482.349119 -23865.170954 -11300.305099   -504.112219  5  2  5  64       
PG27 -12697.455165 -12511.632322 -19811.892057    258.016468  6  4  4  86       
PG28 -13523.025232  22848.732973      0.075857    612.941666  5  6  3  69       
PG29  25134.232856  -4974.359029  -6940.286438    604.123727 10  3  3  81       
PG30  -5074.298717  17973.517386 -18840.426779    156.799221  4  5  3  90       
PG31  -3682.236689 -22683.363108  13036.239308    200.974380  6  4  6  64       
PG32   8880.838809 -14879.908931  20134.823413   -414.203740  4  5  5  81       
*  2017  5 15 11 45  0.00000000
PG01 -20095.314812  -9953.800994  14331.765509     54.687367  4  5  3  82       
PG02  14130.920940  22215.341749   5144.053982    419.230400  9  6  2  61       
PG03 -16280.408770   1011.991796  20954.872734   -100.345510  5  4  4  94       
PG05   5921.155785  19217.072381 -17331.988601    -45.931969  7  6  5  86       
PG06   1668.096653  20701.018534  16571.160343    351.165759     3  3  87       
PG07 -15510.208846   3783.339882 -21120.691516    351.226447  9  6  6  85       
PG08 -21298.333956  -6854.760111 -14332.679723    -59.796989  8  6  5  90       
PG09 -24297.736463   8402.534116  -6717.361448    363.712937  9  4  7  86       
PG10  10484.128627 -24319.699774   -863.566481    -53.173581  5  4  4  89       
PG11 -24185.704305  -9751.055386   4312.345957   -688.262467  8  7  4  94       
PG12  13446.024634   5514.087264  22063.616573    383.531790  9  2  5 103       
PG13  14594.245768  12386.206544 -18509.462064    -81.864812  7  7  5 111       
PG14   2673.031798 -15346.084246  21768.496134    -70.792163  5  4  5  92       
PG15  24000.846963   3617.107482 -11373.020349   -349.939987  9  7  3  89       
PG16  -3104.889022 -19594.754105 -17579.346619     33.287055  7  8  7 102       
PG17 -12618.588305  13946.495550  19047.387598   -179.517835  2  5  2 105       
PG18  14538.149415 -19739.117595  -9378.476967    615.549159 10  8  6  87       
PG19  -4748.752066  14645.356417  21408.029252   -503.594290  3  5  3 111       
PG20  15512.345223   4034.689147 -21322.526409    472.293675  6  5  5  97       
PG21  11294.370467 -10332.459509 -20923.141151   -506.891477  4  5  3  65       
PG22 -13433.041236  -9663.699702  21017.728367      9.363813  5  4  6  86       
PG23 -26407.834036    353.174321   4779.977673   -211.815331 10  4  5  88       
PG24  20797.019310  11649.902174  11875.818434    -34.850492  7  1  5  93       
PG25  16942.287228 -10413.166153  17344.003063   -387.584610  4  2  1 108       
PG26   3156.738815 -24827.080874  -8767.874800   -504.108459  5  2  5 105       
PG27 -10409.057453 -12830.933370 -20895.751891    258.022450  5  4  4  85       
PG28 -13567.103362  22556.584940  -2903.846913    612.944345  6  6  4  70       
PG29  25774.562862  -4810.921653  -4135.327145    604.121084 10  4  4  77       
PG30  -6383.836252  16161.264427 -20057.176380    156.798390  4  5  4  86       
PG31  -2606.012424 -21455.669478  15237.324272    200.972532  6  4  6  61       
PG32  11111.103697 -15010.351877  18886.838462   -414.213131  4  5  5  88       
EOF
